{"type": "FeatureCollection", "features": [ {"type": "Feature", "properties": {"norad_id": 28649, "name": "IRS-P5 (CARTOSAT-1)", "group": "resource", "lat": -39.18526842005118, "lon": 15.768090028406952, "alt_km": 603.173666210123, "timestamp": "2025-12-08T23:34:03.625973+00:00", "meta": {"OBJECT_NAME": "IRS-P5 (CARTOSAT-1)", "OBJECT_ID": "2005-017A", "EPOCH": "2025-12-08T14:04:37.394688", "MEAN_MOTION": 14.90385008, "ECCENTRICITY": 0.00014985, "INCLINATION": 97.5496, "RA_OF_ASC_NODE": 9.1839, "ARG_OF_PERICENTER": 48.0026, "MEAN_ANOMALY": 312.132, "EPHEMERIS_TYPE": 0, "CLASSIFICATION_TYPE": "U", "NORAD_CAT_ID": 28649, "ELEMENT_SET_NO": 999, "REV_AT_EPOCH": 11542, "BSTAR": 0.00028184805, "MEAN_MOTION_DOT": 2.692e-05, "MEAN_MOTION_DDOT": 0}, "tle": {"line1": "1 28649U 05017A   25342.58654392  .00002692  00000+0  28185-3 0  9995", "line2": "2 28649  97.5496   9.1839 0001498  48.0026 312.1320 14.90385008115426"}}, "geometry": {"type": "Point", "coordinates": [15.768090028406952, -39.18526842005118]}}, {"type": "Feature", "properties": {"norad_id": 28893, "name": "SINAH 1", "group": "resource", "lat": -48.56141078663752, "lon": 121.00036759154715, "alt_km": 697.4736407791506, "timestamp": "2025-12-08T23:34:03.625985+00:00", "meta": {"OBJECT_NAME": "SINAH 1", "OBJECT_ID": "2005-043D", "EPOCH": "2025-12-08T15:35:27.732192", "MEAN_MOTION": 14.63956166, "ECCENTRICITY": 0.00151306, "INCLINATION": 98.2601, "RA_OF_ASC_NODE": 111.196, "ARG_OF_PERICENTER": 149.1539, "MEAN_ANOMALY": 211.0555, "EPHEMERIS_TYPE": 0, "CLASSIFICATION_TYPE": "U", "NORAD_CAT_ID": 28893, "ELEMENT_SET_NO": 999, "REV_AT_EPOCH": 7264, "BSTAR": 0.0002071443, "MEAN_MOTION_DOT": 1.037e-05, "MEAN_MOTION_DDOT": 0}, "tle": {"line1": "1 28893U 05043D   25342.64962653  .00001037  00000+0  20714-3 0  9996", "line2": "2 28893  98.2601 111.1960 0015130 149.1539 211.0555 14.63956166 72644"}}, "geometry": {"type": "Point", "coordinates": [121.00036759154715, -48.56141078663752]}}, {"type": "Feature", "properties": {"norad_id": 29079, "name": "EROS B", "group": "resource", "lat": 1.6842947255079683, "lon": 99.16361517275789, "alt_km": 371.1186068648567, "timestamp": "2025-12-08T23:34:03.626018+00:00", "meta": {"OBJECT_NAME": "EROS B", "OBJECT_ID": "2006-014A", "EPOCH": "2025-12-08T14:21:46.488672", "MEAN_MOTION": 15.6661638, "ECCENTRICITY": 0.00016049, "INCLINATION": 97.3479, "RA_OF_ASC_NODE": 98.9802, "ARG_OF_PERICENTER": 275.3886, "MEAN_ANOMALY": 84.7192, "EPHEMERIS_TYPE": 0, "CLASSIFICATION_TYPE": "U", "NORAD_CAT_ID": 29079, "ELEMENT_SET_NO": 999, "REV_AT_EPOCH": 9015, "BSTAR": 0.0016048609, "MEAN_MOTION_DOT": 0.00170887, "MEAN_MOTION_DDOT": 0}, "tle": {"line1": "1 29079U 06014A   25342.59845473  .00170887  00000+0  16049-2 0  9991", "line2": "2 29079  97.3479  98.9802 0001604 275.3886  84.7192 15.66616380 90152"}}, "geometry": {"type": "Point", "coordinates": [99.16361517275789, 1.6842947255079683]}}, {"type": "Feature", "properties": {"norad_id": 29228, "name": "RESURS-DK 1", "group": "resource", "lat": -57.251358710474605, "lon": 76.91662462927376, "alt_km": 531.8392557417428, "timestamp": "2025-12-08T23:34:03.626032+00:00", "meta": {"OBJECT_NAME": "RESURS-DK 1", "OBJECT_ID": "2006-021A", "EPOCH": "2025-12-08T15:54:36.089280", "MEAN_MOTION": 15.12127563, "ECCENTRICITY": 0.00076239, "INCLINATION": 69.9338, "RA_OF_ASC_NODE": 112.3734, "ARG_OF_PERICENTER": 262.4591, "MEAN_ANOMALY": 97.5709, "EPHEMERIS_TYPE": 0, "CLASSIFICATION_TYPE": "U", "NORAD_CAT_ID": 29228, "ELEMENT_SET_NO": 999, "REV_AT_EPOCH": 7376, "BSTAR": 0.00028749125, "MEAN_MOTION_DOT": 4.863e-05, "MEAN_MOTION_DDOT": 0}, "tle": {"line1": "1 29228U 06021A   25342.66291770  .00004863  00000+0  28749-3 0  9999", "line2": "2 29228  69.9338 112.3734 0007623 262.4591  97.5709 15.12127563 73764"}}, "geometry": {"type": "Point", "coordinates": [76.91662462927376, -57.251358710474605]}}, {"type": "Feature", "properties": {"norad_id": 29268, "name": "ARIRANG-2 (KOMPSAT-2)", "group": "resource", "lat": -28.87990347898873, "lon": -12.712990637260143, "alt_km": 688.2958837522401, "timestamp": "2025-12-08T23:34:03.626044+00:00", "meta": {"OBJECT_NAME": "ARIRANG-2 (KOMPSAT-2)", "OBJECT_ID": "2006-031A", "EPOCH": "2025-12-08T14:45:03.828096", "MEAN_MOTION": 14.64488719, "ECCENTRICITY": 0.00136689, "INCLINATION": 97.8269, "RA_OF_ASC_NODE": 171.2889, "ARG_OF_PERICENTER": 322.7953, "MEAN_ANOMALY": 110.8077, "EPHEMERIS_TYPE": 0, "CLASSIFICATION_TYPE": "U", "NORAD_CAT_ID": 29268, "ELEMENT_SET_NO": 999, "REV_AT_EPOCH": 3358, "BSTAR": 0.0001571807, "MEAN_MOTION_DOT": 7.89e-06, "MEAN_MOTION_DDOT": 0}, "tle": {"line1": "1 29268U 06031A   25342.61462764  .00000789  00000+0  15718-3 0  9997", "line2": "2 29268  97.8269 171.2889 0013668 322.7953 110.8077 14.64488719 33586"}}, "geometry": {"type": "Point", "coordinates": [-12.712990637260143, -28.87990347898873]}}, {"type": "Feature", "properties": {"norad_id": 29709, "name": "LAPAN-TUBSAT", "group": "resource", "lat": -37.417532180656785, "lon": 146.78621417698565, "alt_km": 624.3413433815531, "timestamp": "2025-12-08T23:34:03.626055+00:00", "meta": {"OBJECT_NAME": "LAPAN-TUBSAT", "OBJECT_ID": "2007-001A", "EPOCH": "2025-12-08T14:30:34.377120", "MEAN_MOTION": 14.85661716, "ECCENTRICITY": 0.00136464, "INCLINATION": 98.1254, "RA_OF_ASC_NODE": 332.6761, "ARG_OF_PERICENTER": 86.5827, "MEAN_ANOMALY": 273.6948, "EPHEMERIS_TYPE": 0, "CLASSIFICATION_TYPE": "U", "NORAD_CAT_ID": 29709, "ELEMENT_SET_NO": 999, "REV_AT_EPOCH": 2285, "BSTAR": 0.00015871958, "MEAN_MOTION_DOT": 1.32e-05, "MEAN_MOTION_DDOT": 0}, "tle": {"line1": "1 29709U 07001A   25342.60456455  .00001320  00000+0  15872-3 0  9997", "line2": "2 29709  98.1254 332.6761 0013646  86.5827 273.6948 14.85661716 22853"}}, "geometry": {"type": "Point", "coordinates": [146.78621417698565, -37.417532180656785]}}, {"type": "Feature", "properties": {"norad_id": 31113, "name": "HAIYANG-1B", "group": "resource", "lat": 57.04395453926088, "lon": 160.47811009001603, "alt_km": 780.0803408253087, "timestamp": "2025-12-08T23:34:03.626066+00:00", "meta": {"OBJECT_NAME": "HAIYANG-1B", "OBJECT_ID": "2007-010A", "EPOCH": "2025-12-08T12:55:55.789824", "MEAN_MOTION": 14.30963057, "ECCENTRICITY": 0.00144338, "INCLINATION": 98.331, "RA_OF_ASC_NODE": 326.9906, "ARG_OF_PERICENTER": 49.6655, "MEAN_ANOMALY": 310.5788, "EPHEMERIS_TYPE": 0, "CLASSIFICATION_TYPE": "U", "NORAD_CAT_ID": 31113, "ELEMENT_SET_NO": 999, "REV_AT_EPOCH": 97336, "BSTAR": 0.00011511142, "MEAN_MOTION_DOT": 2.61e-06, "MEAN_MOTION_DDOT": 0}, "tle": {"line1": "1 31113U 07010A   25342.53884016  .00000261  00000+0  11511-3 0  9998", "line2": "2 31113  98.3310 326.9906 0014433  49.6655 310.5788 14.30963057973368"}}, "geometry": {"type": "Point", "coordinates": [160.47811009001603, 57.04395453926088]}}, {"type": "Feature", "properties": {"norad_id": 31598, "name": "COSMO-SKYMED 1", "group": "resource", "lat": 37.16645464413263, "lon": 162.32704490832236, "alt_km": 576.9584050261246, "timestamp": "2025-12-08T23:34:03.626077+00:00", "meta": {"OBJECT_NAME": "COSMO-SKYMED 1", "OBJECT_ID": "2007-023A", "EPOCH": "2025-12-08T13:46:00.447456", "MEAN_MOTION": 14.95717172, "ECCENTRICITY": 0.00010586, "INCLINATION": 97.8834, "RA_OF_ASC_NODE": 167.946, "ARG_OF_PERICENTER": 81.2716, "MEAN_ANOMALY": 278.8625, "EPHEMERIS_TYPE": 0, "CLASSIFICATION_TYPE": "U", "NORAD_CAT_ID": 31598, "ELEMENT_SET_NO": 999, "REV_AT_EPOCH": 128, "BSTAR": 0.0005162512, "MEAN_MOTION_DOT": 5.691e-05, "MEAN_MOTION_DDOT": 0}, "tle": {"line1": "1 31598U 07023A   25342.57361629  .00005691  00000+0  51625-3 0  9995", "line2": "2 31598  97.8834 167.9460 0001058  81.2716 278.8625 14.95717172  1282"}}, "geometry": {"type": "Point", "coordinates": [162.32704490832236, 37.16645464413263]}}, {"type": "Feature", "properties": {"norad_id": 31698, "name": "TERRASAR-X", "group": "resource", "lat": 79.43872565626152, "lon": -147.04581020051978, "alt_km": 499.85114510967287, "timestamp": "2025-12-08T23:34:03.626088+00:00", "meta": {"OBJECT_NAME": "TERRASAR-X", "OBJECT_ID": "2007-026A", "EPOCH": "2025-12-08T12:04:27.873696", "MEAN_MOTION": 15.19158704, "ECCENTRICITY": 0.00017239, "INCLINATION": 97.4451, "RA_OF_ASC_NODE": 347.9445, "ARG_OF_PERICENTER": 89.3855, "MEAN_ANOMALY": 270.7577, "EPHEMERIS_TYPE": 0, "CLASSIFICATION_TYPE": "U", "NORAD_CAT_ID": 31698, "ELEMENT_SET_NO": 999, "REV_AT_EPOCH": 2427, "BSTAR": 0.00014009101, "MEAN_MOTION_DOT": 2.877e-05, "MEAN_MOTION_DDOT": 0}, "tle": {"line1": "1 31698U 07026A   25342.50310039  .00002877  00000+0  14009-3 0  9999", "line2": "2 31698  97.4451 347.9445 0001723  89.3855 270.7577 15.19158704 24277"}}, "geometry": {"type": "Point", "coordinates": [-147.04581020051978, 79.43872565626152]}}, {"type": "Feature", "properties": {"norad_id": 32060, "name": "WORLDVIEW-1 (WV-1)", "group": "resource", "lat": 24.326698576735122, "lon": 97.155231853811, "alt_km": 491.3477670190623, "timestamp": "2025-12-08T23:34:03.626099+00:00", "meta": {"OBJECT_NAME": "WORLDVIEW-1 (WV-1)", "OBJECT_ID": "2007-041A", "EPOCH": "2025-12-08T14:00:32.811840", "MEAN_MOTION": 15.24584013, "ECCENTRICITY": 7.807e-05, "INCLINATION": 97.3842, "RA_OF_ASC_NODE": 100.1238, "ARG_OF_PERICENTER": 101.7843, "MEAN_ANOMALY": 258.3482, "EPHEMERIS_TYPE": 0, "CLASSIFICATION_TYPE": "U", "NORAD_CAT_ID": 32060, "ELEMENT_SET_NO": 999, "REV_AT_EPOCH": 1384, "BSTAR": 0.00045944672, "MEAN_MOTION_DOT": 0.0001126, "MEAN_MOTION_DDOT": 0}, "tle": {"line1": "1 32060U 07041A   25342.58371310  .00011260  00000+0  45945-3 0  9996", "line2": "2 32060  97.3842 100.1238 0000780 101.7843 258.3482 15.24584013 13841"}}, "geometry": {"type": "Point", "coordinates": [97.155231853811, 24.326698576735122]}}]}